[{"OBJECT_NAME":"STARLINK-34212","OBJECT_ID":"2025-111S","EPOCH":"2026-03-09T09:59:43.798560","MEAN_MOTION":15.27588915,"ECCENTRICITY":0.00017882,"INCLINATION":43.0059,"RA_OF_ASC_NODE":79.2366,"ARG_OF_PERICENTER":282.8716,"MEAN_ANOMALY":77.1936,"EPHEMERIS_TYPE":0,"CLASSIFICATION_TYPE":"U","NORAD_CAT_ID":64139,"ELEMENT_SET_NO":999,"REV_AT_EPOCH":4542,"BSTAR":0.0010101297,"MEAN_MOTION_DOT":0.00027646,"MEAN_MOTION_DDOT":0},{"OBJECT_NAME":"CZ-6A DEB","OBJECT_ID":"2022-151AJB","EPOCH":"2026-02-27T14:06:27.470880","MEAN_MOTION":15.13235807,"ECCENTRICITY":0.00651829,"INCLINATION":98.7617,"RA_OF_ASC_NODE":191.4844,"ARG_OF_PERICENTER":85.1472,"MEAN_ANOMALY":275.7194,"EPHEMERIS_TYPE":0,"CLASSIFICATION_TYPE":"U","NORAD_CAT_ID":58433,"ELEMENT_SET_NO":999,"REV_AT_EPOCH":15167,"BSTAR":0.0027921214,"MEAN_MOTION_DOT":0.00052525,"MEAN_MOTION_DDOT":0}]
